Corps du système solaire : Neptune (Planet)
Époque : 2022-03-29T20:31:09.925 / +1000 / 300 Jour / UTC
Système de coordonnées (ICRF) : Héliocentre – Écliptique – Astrométrique J2000 – Cartésiennes
Options : INPOP19a
Éphémérides de position
Colonnes :
1: Date (undefined)
2: px (au)
3: py (au)
4: pz (au)
5: Dobs (au)
6: Phase (deg)
7: VMag (mag)
8: vx (au/d)
9: vy (au/d)
10: vz (au/d)
11: RV (km/s)
$$SOE
2497468.354975984 -23.363052117833 -19.332759136128  0.936586269645 30.339165676014 0 7.95  0.001987910138 -0.002403058978  0.000003638874  0.0009999
2497768.354975984 -22.755461564315 -20.043946257495  0.937225125224 30.338905773177 0 7.95  0.002062220285 -0.002337619855      6.24794e-7 -0.0040556
2498068.354975984 -22.126046684717 -20.735114748068  0.936961797329 30.337844730954 0 7.95  0.002133409135 -0.002269841671 -0.000002374147 -0.0080305
2498368.354975984 -21.475794658168 -21.405626236461  0.935805135063 30.336221287854 0 7.95  0.002201121454 -0.002200111875  -0.00000533318 -0.0103336
2498668.354975984 -20.805700081064 -22.055062623976  0.933765676529 30.334384146532 0 7.95   0.00226560623 -0.002129390853 -0.000008257392 -0.0103533
2498968.354975984 -20.116627156089 -22.683196974543   0.93085157754 30.332698491602 0 7.95  0.002327714228  -0.00205809518 -0.000011166694 -0.0086751
2499268.354975984 -19.409241104538 -23.289882506101  0.927067466305 30.331447731507 0 7.95  0.002387963149 -0.001986276344 -0.000014062238  -0.005791
2499568.354975984 -18.683994828833 -23.874936626252  0.922413913105 30.330761762582 0 7.95  0.002446921368 -0.001913811089 -0.000016962072 -0.0023858
2499868.354975984  -17.94119221597 -24.438033464552  0.916887526715  30.33058753934 0 7.95  0.002505026561 -0.001839953193  -0.00001988242  0.0001966
2500168.354975984 -17.181109039194 -24.978650386195  0.910483938029 30.330718157239 0 7.95  0.002562015718 -0.001763890085 -0.000022811225  0.0011733
2500468.354975984 -16.404120655683  -25.49611032044  0.903201206716 30.330885057612 0 7.95  0.002617518153 -0.001685435108 -0.000025739535  0.0006113
2500768.354975984 -15.610724059702 -25.989657548015  0.895039377234 30.330811077484 0 7.95   0.00267133758 -0.001604374949 -0.000028669653 -0.0017136
2501068.354975984 -14.801555631204 -26.458477051548  0.886002083714 30.330216891464 0 7.95   0.00272273812 -0.001520550453 -0.000031576438 -0.0055538
2501368.354975984 -13.977406982278 -26.901776968349  0.876097339459 30.328881557869 0 7.95  0.002771179209 -0.001434320996    -0.000034448 -0.0101788
2501668.354975984 -13.139178708232 -27.318822746041  0.865335677726 30.326636793281 0 7.95  0.002816476781 -0.001345725588 -0.000037287555 -0.0156904
2501968.354975984 -12.287899219823 -27.708948750461  0.853731390743 30.323376549779 0 7.95  0.002858065455  -0.00125491306 -0.000040066569 -0.0217838
2502268.354975984 -11.424717336508 -28.071619442974  0.841302754031 30.319099173528 0 7.95  0.002895671719 -0.001162643809 -0.000042778093 -0.0274646
2502568.354975984 -10.550853028281 -28.406465288836  0.828070165998 30.313915451984 0 7.95  0.002929344101 -0.001069494331 -0.000045426357 -0.0322224
2502868.354975984  -9.667535183696 -28.713307257442  0.814055713083 30.308050694366 0 7.95  0.002958898383 -0.000976057802 -0.000047992472 -0.0353326
2503168.354975984  -8.775921658693 -28.992178173564  0.799281754283  30.30184891273 0 7.94  0.002984737007 -0.000883203771 -0.000050488781 -0.0358939
2503468.354975984  -7.876972474349 -29.243279003012    0.7837665511 30.295715080128 0 7.94  0.003007862299 -0.000791059685 -0.000052937938 -0.0343574
2503768.354975984  -6.971410192472 -29.466818957219  0.767523889227 30.289983038123 0 7.94  0.003028859667 -0.000699336614 -0.000055342814  -0.031478
2504068.354975984   -6.05978508673  -29.66291240088  0.750563847881 30.284859476137 0 7.94  0.003048291906  -0.00060783751 -0.000057719388 -0.0277335
2504368.354975984   -5.14253931207 -29.831498570465  0.732893240108 30.280375658787 0 7.94  0.003066411238 -0.000515843894 -0.000060079734  -0.024289
2504668.354975984  -4.220144062771 -29.972325198966  0.714519529951 30.276400577047 0 7.94  0.003082705348 -0.000422760895 -0.000062407968 -0.0218989
2504968.354975984  -3.293174459808 -30.085037269471  0.695452754779 30.272728982738 0 7.94   0.00309676997 -0.000328465992 -0.000064695631 -0.0206638
2505268.354975984  -2.362323242642 -30.169229468851  0.675705265917 30.269118841706 0 7.94  0.003108397734 -0.000232718678 -0.000066945165 -0.0210122
2505568.354975984  -1.428416334083 -30.224484376612  0.655292692397 30.265314099943 0 7.94  0.003117040739 -0.000135446495 -0.000069129978 -0.0231086
2505868.354975984  -0.492415759706   -30.2504163179  0.634234686247 30.261070938153 0 7.94  0.003122286053 -0.000037140439 -0.000071242799 -0.0262704
2506168.354975984   0.444615116017 -30.246713520289  0.612553019851 30.256182551372 0 7.94  0.003123982045  0.000062019184 -0.000073287209  -0.030433
2506468.354975984    1.38152026536 -30.213144533186  0.590272791423 30.250473100351 0 7.94  0.003121491303  0.000161817481 -0.000075233439 -0.0355455
2506768.354975984   2.317043936121 -30.149634521953  0.567422706409   30.2438609132 0 7.94  0.003114643839  0.000261440664 -0.000077082385  -0.040608
2507068.354975984   3.249915700437 -30.056308908922  0.544032277067 30.236395757547 0 7.94   0.00310372195  0.000360442759 -0.000078836678 -0.0452176
2507368.354975984   4.178899169282 -29.933483283766  0.520131992187 30.228250975798 0 7.93  0.003088814314  0.000458139082  -0.00008048428 -0.0485568
2507668.354975984   5.102896925997 -29.781669168852  0.495750479995 30.219747584298 0 7.93  0.003070659802  0.000553750917 -0.000082044411 -0.0494483
2507968.354975984   6.021059118615 -29.601457147467   0.47091131265 30.211275637211 0 7.93  0.003050155786  0.000647389929 -0.000083539195 -0.0480189
2508268.354975984   6.932764401288 -29.393378144096  0.445633400683  30.20318675394 0 7.93  0.003027745142  0.000739543571 -0.000084973159 -0.0449963
2508568.354975984   7.837531907682 -29.157814570844  0.419932718814 30.195718246797 0 7.93  0.003003763264   0.00083068341 -0.000086355453 -0.0410038
2508868.354975984    8.73491335366 -28.894975043123   0.39382357208 30.188961410498 0 7.93  0.002978385312  0.000921486985 -0.000087696586   -0.03699
2509168.354975984   9.624396612343 -28.604905675678  0.367321740275 30.182852153615 0 7.93  0.002951098043  0.001012410521 -0.000088973513 -0.0338486
2509468.354975984  10.505338637918 -28.287574187341  0.340446552747 30.177224808735 0 7.93  0.002921446179  0.001103287072 -0.000090180742 -0.0315131
2509768.354975984  11.376995730985 -27.942935772759   0.31321927555 30.171870969132 0 7.93  0.002889212849  0.001194314294 -0.000091320087 -0.0304543
2510068.354975984  12.238501425282 -27.570945946673  0.285665051922 30.166530825616 0 7.93  0.002853702263  0.001285517407  -0.00009236079 -0.0312396
2510368.354975984  13.088864452349 -27.171636932887  0.257812602191 30.160946497125 0 7.92   0.00281470719  0.001376409694 -0.000093303309 -0.0334132
2510668.354975984  13.927009024219 -26.745126741569  0.229692707677 30.154869316965 0 7.92  0.002772150286  0.001466839821 -0.000094143814 -0.0370167
2510968.354975984  14.751764462706 -26.291644011908  0.201339559664 30.148061914994 0 7.92  0.002725532716  0.001556267881 -0.000094858188 -0.0418978
2511268.354975984  15.561911531141 -25.811594880524  0.172789859578 30.140361263842 0 7.92  0.002674826381  0.001643817887 -0.000095450502  -0.047143
2511568.354975984  16.356262865971 -25.305596727111   0.14408051322 30.131732772116 0 7.92  0.002620347964  0.001728981017 -0.000095925156 -0.0521543
2511868.354975984  17.133749488771 -24.774465934681   0.11524745073 30.122297652529 0 7.92  0.002562454734  0.001811252174 -0.000096278498 -0.0562993
2512168.354975984  17.893497975415 -24.219166535675  0.086323486708 30.112335499315 0 7.92  0.002502087324  0.001890144588 -0.000096531859 -0.0583604
2512468.354975984  18.634902912277 -23.640682012413  0.057335133069 30.102238120769 0 7.92  0.002440293175  0.001965973671 -0.000096711367 -0.0579723
2512768.354975984  19.357562361365 -23.039851715236  0.028304687743 30.092370939983 0 7.91  0.002377304775  0.002039302884 -0.000096815492 -0.0557631
2513068.354975984  20.061161544501 -22.417347120638 -0.000747675213 30.083012731453 0 7.91  0.002313267728  0.002110514798 -0.000096854511 -0.0521016
2513368.354975984  20.745396943582 -21.773669263807 -0.029802861083 30.074325524722 0 7.91  0.002248150188  0.002180359198 -0.000096834752 -0.0479445
2513668.354975984  21.409871051104 -21.109194361377 -0.058839434525 30.066328793026 0 7.91  0.002181395834   0.00224919431 -0.000096730924 -0.0443188
2513968.354975984  22.054071519886 -20.424261714387 -0.087833117927 30.058946286232 0 7.91  0.002112794728  0.002316846356 -0.000096543672 -0.0412241
2514268.354975984  22.677385603224 -19.719205800119 -0.116757702487 30.052030339826 0 7.91  0.002042172709  0.002383381523 -0.000096271004 -0.0389487
2514568.354975984  23.279100695229 -18.994383530431 -0.145583847476 30.045371183201 0 7.91   0.00196889698  0.002448638145 -0.000095886603 -0.0381649
2514868.354975984  23.858406148159 -18.250226199425 -0.174279105546 30.038719571035 0 7.91  0.001892730312  0.002512117015 -0.000095394298 -0.0387663
2515168.354975984  24.414430565349 -17.487278131088 -0.202809674618 30.031823921107 0 7.91  0.001813618039  0.002573700722 -0.000094789637 -0.0408966
2515468.354975984  24.946243639259 -16.706208071694 -0.231139040276 30.024421478189 0  7.9  0.001731220675  0.002632884727  -0.00009405308 -0.0447695
2515768.354975984   25.45289523016 -15.907885267945 -0.259229352532 30.016293727788 0  7.9  0.001645851798  0.002688722374 -0.000093193885 -0.0493794
2516068.354975984  25.933541291936 -15.093376694649 -0.287044540109 30.007348742519 0  7.9   0.00155806105  0.002740729136  -0.00009222188 -0.0539127
$$EOE
